{"type": "FeatureCollection", "features": [{"type": "Feature", "properties": {"engineer_id": "eng_00", "engineer_name": "Паршин", "distance_km": 196.04, "time_min": 702, "num_tasks": 5, "color": "#e6194b"}, "geometry": {"type": "LineString", "coordinates": [[37.7555, 55.4405], [38.1665, 54.8335], [38.1665, 54.8335], [38.0785, 54.8975], [37.7555, 55.4405], [37.7555, 55.4405], [37.7555, 55.4405]]}}, {"type": "Feature", "properties": {"engineer_id": "eng_01", "engineer_name": "Андреев", "distance_km": 19.62, "time_min": 694, "num_tasks": 13, "color": "#3cb44b"}, "geometry": {"type": "LineString", "coordinates": [[37.6572, 55.5876], [37.6795, 55.6155], [37.6795, 55.6155], [37.6795, 55.6155], [37.7005, 55.6225], [37.7005, 55.6225], [37.6795, 55.6155], [37.7005, 55.6225], [37.6795, 55.6155], [37.6795, 55.6155], [37.6795, 55.6155], [37.6795, 55.6155], [37.6795, 55.6155], [37.6415, 55.5865], [37.6572, 55.5876]]}}, {"type": "Feature", "properties": {"engineer_id": "eng_02", "engineer_name": "Белоновский", "distance_km": 21.94, "time_min": 283, "num_tasks": 5, "color": "#ffe119"}, "geometry": {"type": "LineString", "coordinates": [[37.6572, 55.5876], [37.7005, 55.6225], [37.7495, 55.6265], [37.7495, 55.6265], [37.7005, 55.6225], [37.7065, 55.6135], [37.6572, 55.5876]]}}, {"type": "Feature", "properties": {"engineer_id": "eng_04", "engineer_name": "Горбанев", "distance_km": 29.48, "time_min": 706, "num_tasks": 11, "color": "#f58231"}, "geometry": {"type": "LineString", "coordinates": [[37.6572, 55.5876], [37.6905, 55.5905], [37.7325, 55.6105], [37.7325, 55.6105], [37.7325, 55.6105], [37.6905, 55.5905], [37.6905, 55.5905], [37.7325, 55.6105], [37.7325, 55.6105], [37.7495, 55.6265], [37.7495, 55.6265], [37.7065, 55.6135], [37.6572, 55.5876]]}}, {"type": "Feature", "properties": {"engineer_id": "eng_05", "engineer_name": "Бузань", "distance_km": 47.22, "time_min": 589, "num_tasks": 10, "color": "#911eb4"}, "geometry": {"type": "LineString", "coordinates": [[37.6572, 55.5876], [37.7555, 55.4405], [37.7555, 55.4405], [37.7555, 55.4405], [37.7555, 55.4405], [37.7555, 55.4405], [37.7555, 55.4405], [37.7555, 55.4405], [37.7555, 55.4405], [37.7555, 55.4405], [37.7555, 55.4405], [37.6572, 55.5876]]}}, {"type": "Feature", "properties": {"engineer_id": "eng_06", "engineer_name": "Козырь", "distance_km": 24.5, "time_min": 780, "num_tasks": 10, "color": "#46f0f0"}, "geometry": {"type": "LineString", "coordinates": [[38.0785, 54.8975], [38.0785, 54.8975], [38.0785, 54.8975], [38.1665, 54.8335], [38.1665, 54.8335], [38.1665, 54.8335], [38.1665, 54.8335], [38.1665, 54.8335], [38.1665, 54.8335], [38.1665, 54.8335], [38.0785, 54.8975], [38.0785, 54.8975]]}}, {"type": "Feature", "properties": {"engineer_id": "eng_07", "engineer_name": "Саламатин", "distance_km": 0.0, "time_min": 503, "num_tasks": 7, "color": "#f032e6"}, "geometry": {"type": "LineString", "coordinates": [[38.1665, 54.8335], [38.1665, 54.8335], [38.1665, 54.8335], [38.1665, 54.8335], [38.1665, 54.8335], [38.1665, 54.8335], [38.1665, 54.8335], [38.1665, 54.8335], [38.1665, 54.8335]]}}, {"type": "Feature", "properties": {"engineer_id": "eng_08", "engineer_name": "Макаров", "distance_km": 21.36, "time_min": 638, "num_tasks": 11, "color": "#bcf60c"}, "geometry": {"type": "LineString", "coordinates": [[37.6572, 55.5876], [37.6905, 55.5905], [37.7325, 55.6105], [37.7325, 55.6105], [37.7325, 55.6105], [37.7495, 55.6265], [37.7495, 55.6265], [37.7065, 55.6135], [37.7065, 55.6135], [37.7065, 55.6135], [37.7065, 55.6135], [37.6795, 55.6155], [37.6572, 55.5876]]}}, {"type": "Feature", "properties": {"engineer_id": "eng_10", "engineer_name": "Царьков", "distance_km": 27.06, "time_min": 550, "num_tasks": 9, "color": "#008080"}, "geometry": {"type": "LineString", "coordinates": [[37.6572, 55.5876], [37.7005, 55.6225], [37.7005, 55.6225], [37.6775, 55.6465], [37.6415, 55.5865], [37.6415, 55.5865], [37.6415, 55.5865], [37.6415, 55.5865], [37.6905, 55.5905], [37.6905, 55.5905], [37.6572, 55.5876]]}}, {"type": "Feature", "properties": {"engineer_id": "eng_11", "engineer_name": "Демин", "distance_km": 5.72, "time_min": 115, "num_tasks": 2, "color": "#e6beff"}, "geometry": {"type": "LineString", "coordinates": [[37.6572, 55.5876], [37.6905, 55.5905], [37.6905, 55.5905], [37.6572, 55.5876]]}}, {"type": "Feature", "properties": {"task_id": 67472, "type_bk": "Подключение", "type_hd": "Заказ подключения/Дозаказ оборудования", "priority": "connection", "address": "Домодедово, проезд.Советский 1-й, д. 1А", "tw": "16:00–18:00"}, "geometry": {"type": "Point", "coordinates": [37.7555, 55.4405]}}, {"type": "Feature", "properties": {"task_id": 84466, "type_bk": "Подключение", "type_hd": "Конвергенция абонента", "priority": "connection", "address": "Город Москва, проезд.Гурьевский, д. 23 к 1", "tw": "18:00–20:00"}, "geometry": {"type": "Point", "coordinates": [37.7065, 55.6135]}}, {"type": "Feature", "properties": {"task_id": 14416, "type_bk": "Подключение", "type_hd": "Заказ подключения/Дозаказ оборудования", "priority": "connection", "address": "Город Москва, ул.Кустанайская, д. 8 к 1", "tw": "16:00–18:00"}, "geometry": {"type": "Point", "coordinates": [37.7325, 55.6105]}}, {"type": "Feature", "properties": {"task_id": 68359, "type_bk": "Подключение", "type_hd": "Конвергенция абонента", "priority": "connection", "address": "Город Москва, ш.Каширское, д. 136", "tw": "16:00–18:00"}, "geometry": {"type": "Point", "coordinates": [37.7065, 55.6135]}}, {"type": "Feature", "properties": {"task_id": 66944, "type_bk": "Подключение", "type_hd": "Конвергенция абонента", "priority": "connection", "address": "Домодедово, ул.Зеленая, д. 85", "tw": "10:00–12:00"}, "geometry": {"type": "Point", "coordinates": [37.7555, 55.4405]}}, {"type": "Feature", "properties": {"task_id": 52041, "type_bk": "Подключение", "type_hd": "Конвергенция абонента", "priority": "connection", "address": "Город Москва, ул.Москворечье, д. 4 к 6", "tw": "12:00–14:00"}, "geometry": {"type": "Point", "coordinates": [37.6775, 55.6465]}}, {"type": "Feature", "properties": {"task_id": 23807, "type_bk": "Подключение", "type_hd": "Конвергенция абонента", "priority": "connection", "address": "Город Москва, проезд.Загорьевский, д. 9", "tw": "10:00–12:00"}, "geometry": {"type": "Point", "coordinates": [37.6905, 55.5905]}}, {"type": "Feature", "properties": {"task_id": 60484, "type_bk": "Подключение", "type_hd": "Конвергенция абонента", "priority": "connection", "address": "Город Москва, ул.6-я Радиальная, д. 5 к 3", "tw": "14:00–16:00"}, "geometry": {"type": "Point", "coordinates": [37.6905, 55.5905]}}, {"type": "Feature", "properties": {"task_id": 63591, "type_bk": "Подключение", "type_hd": "Конвергенция абонента", "priority": "connection", "address": "Город Москва, ул.Бирюлёвская, д. 39", "tw": "14:00–16:00"}, "geometry": {"type": "Point", "coordinates": [37.6905, 55.5905]}}, {"type": "Feature", "properties": {"task_id": 53552, "type_bk": "Подключение", "type_hd": "Заказ подключения/Дозаказ оборудования", "priority": "connection", "address": "Кашира, ул.Победы, д. 9", "tw": "14:00–16:00"}, "geometry": {"type": "Point", "coordinates": [38.1665, 54.8335]}}, {"type": "Feature", "properties": {"task_id": 58066, "type_bk": "Подключение", "type_hd": "Конвергенция абонента", "priority": "connection", "address": "Город Москва, ул.Братеевская, д. 18 к 1", "tw": "12:00–14:00"}, "geometry": {"type": "Point", "coordinates": [37.7495, 55.6265]}}, {"type": "Feature", "properties": {"task_id": 2915, "type_bk": "Подключение", "type_hd": "Конвергенция абонента", "priority": "connection", "address": "Город Москва, б-р.Ореховый, д. 35 к 1", "tw": "12:00–14:00"}, "geometry": {"type": "Point", "coordinates": [37.7325, 55.6105]}}, {"type": "Feature", "properties": {"task_id": 3566, "type_bk": "Подключение", "type_hd": "Конвергенция абонента", "priority": "connection", "address": "Город Москва, б-р.Ореховый, д. 35 к 1", "tw": "12:00–14:00"}, "geometry": {"type": "Point", "coordinates": [37.7325, 55.6105]}}, {"type": "Feature", "properties": {"task_id": 68946, "type_bk": "Подключение", "type_hd": "Конвергенция абонента", "priority": "connection", "address": "Город Москва, пр-кт.Пролетарский, д. 14А", "tw": "16:00–18:00"}, "geometry": {"type": "Point", "coordinates": [37.6795, 55.6155]}}, {"type": "Feature", "properties": {"task_id": 55454, "type_bk": "Подключение", "type_hd": "Конвергенция абонента", "priority": "connection", "address": "Домодедово, ул.Корнеева, д. 50", "tw": "12:00–14:00"}, "geometry": {"type": "Point", "coordinates": [37.7555, 55.4405]}}, {"type": "Feature", "properties": {"task_id": 35057, "type_bk": "Подключение", "type_hd": "Конвергенция абонента", "priority": "connection", "address": "Домодедово, ул.Корнеева, д. 40", "tw": "14:00–16:00"}, "geometry": {"type": "Point", "coordinates": [37.7555, 55.4405]}}, {"type": "Feature", "properties": {"task_id": 75745, "type_bk": "Подключение", "type_hd": "Заказ подключения/Дозаказ оборудования", "priority": "connection", "address": "Домодедово, ул.Зеленая, д. 85", "tw": "10:00–12:00"}, "geometry": {"type": "Point", "coordinates": [37.7555, 55.4405]}}, {"type": "Feature", "properties": {"task_id": 65717, "type_bk": "Подключение", "type_hd": "Конвергенция абонента", "priority": "connection", "address": "Город Москва, ул.Ереванская, д. 29", "tw": "10:00–12:00"}, "geometry": {"type": "Point", "coordinates": [37.6795, 55.6155]}}, {"type": "Feature", "properties": {"task_id": 44117, "type_bk": "Подключение", "type_hd": "Конвергенция абонента", "priority": "connection", "address": "Город Москва, ул.Севанская, д. 15 к 1", "tw": "10:00–12:00"}, "geometry": {"type": "Point", "coordinates": [37.6795, 55.6155]}}, {"type": "Feature", "properties": {"task_id": 76173, "type_bk": "Подключение", "type_hd": "Конвергенция абонента", "priority": "connection", "address": "Город Москва, ул.6-я Радиальная, д. 7/1 к 2", "tw": "16:00–18:00"}, "geometry": {"type": "Point", "coordinates": [37.6905, 55.5905]}}, {"type": "Feature", "properties": {"task_id": 876, "type_bk": "Подключение", "type_hd": "Заказ подключения/Дозаказ оборудования", "priority": "connection", "address": "Город Москва, проезд.Загорьевский, д. 9", "tw": "10:00–12:00"}, "geometry": {"type": "Point", "coordinates": [37.6905, 55.5905]}}, {"type": "Feature", "properties": {"task_id": 62011, "type_bk": "Подключение", "type_hd": "Конвергенция абонента", "priority": "connection", "address": "Кашира, ул.Садовая, д. 18", "tw": "10:00–12:00"}, "geometry": {"type": "Point", "coordinates": [38.1665, 54.8335]}}, {"type": "Feature", "properties": {"task_id": 57353, "type_bk": "Подключение", "type_hd": "Заказ подключения/Дозаказ оборудования", "priority": "connection", "address": "Кашира, ул.Садовая, д. 2/11", "tw": "12:00–14:00"}, "geometry": {"type": "Point", "coordinates": [38.1665, 54.8335]}}, {"type": "Feature", "properties": {"task_id": 2245, "type_bk": "Подключение", "type_hd": "Заявка на подключение", "priority": "connection", "address": "Город Москва, ул.Паромная, д. 9 к 1", "tw": "14:00–16:00"}, "geometry": {"type": "Point", "coordinates": [37.7495, 55.6265]}}, {"type": "Feature", "properties": {"task_id": 14494, "type_bk": "Подключение", "type_hd": "Конвергенция абонента", "priority": "connection", "address": "Город Москва, ул.Братеевская, д. 16 к 1", "tw": "10:00–12:00"}, "geometry": {"type": "Point", "coordinates": [37.7495, 55.6265]}}, {"type": "Feature", "properties": {"task_id": 78920, "type_bk": "Подключение", "type_hd": "Заявка на подключение", "priority": "connection", "address": "Город Москва, ул.Борисовские Пруды, д. 20 к 1", "tw": "12:00–14:00"}, "geometry": {"type": "Point", "coordinates": [37.7495, 55.6265]}}, {"type": "Feature", "properties": {"task_id": 78876, "type_bk": "Подключение", "type_hd": "Конвергенция абонента", "priority": "connection", "address": "Кашира, ул.Юбилейная, д. 9", "tw": "10:00–12:00"}, "geometry": {"type": "Point", "coordinates": [38.1665, 54.8335]}}, {"type": "Feature", "properties": {"task_id": 23094, "type_bk": "Подключение", "type_hd": "Конвергенция абонента", "priority": "connection", "address": "Кашира, ул.8 Марта, д. 22", "tw": "12:00–14:00"}, "geometry": {"type": "Point", "coordinates": [38.1665, 54.8335]}}, {"type": "Feature", "properties": {"task_id": 79144, "type_bk": "Подключение", "type_hd": "Заявка на подключение", "priority": "connection", "address": "Город Москва, б-р.Ореховый, д. 7 к 1", "tw": "10:00–12:00"}, "geometry": {"type": "Point", "coordinates": [37.7005, 55.6225]}}, {"type": "Feature", "properties": {"task_id": 60141, "type_bk": "Подключение", "type_hd": "Конвергенция абонента", "priority": "connection", "address": "Город Москва, ш.Каширское, д. 94 к 1", "tw": "12:00–14:00"}, "geometry": {"type": "Point", "coordinates": [37.7005, 55.6225]}}, {"type": "Feature", "properties": {"task_id": 79450, "type_bk": "Подключение", "type_hd": "Заказ подключения/Дозаказ оборудования", "priority": "connection", "address": "Город Москва, б-р.Ореховый, д. 11 к 1", "tw": "12:00–14:00"}, "geometry": {"type": "Point", "coordinates": [37.7005, 55.6225]}}, {"type": "Feature", "properties": {"task_id": 58129, "type_bk": "Подключение", "type_hd": "Заявка на подключение", "priority": "connection", "address": "Город Москва, проезд.Борисовский, д. 44 к 3", "tw": "10:00–12:00"}, "geometry": {"type": "Point", "coordinates": [37.7005, 55.6225]}}, {"type": "Feature", "properties": {"task_id": 93798, "type_bk": "Подключение", "type_hd": "Конвергенция абонента", "priority": "connection", "address": "Город Москва, проезд.Ореховый, д. 41", "tw": "10:00–12:00"}, "geometry": {"type": "Point", "coordinates": [37.7325, 55.6105]}}, {"type": "Feature", "properties": {"task_id": 89696, "type_bk": "Подключение", "type_hd": "Конвергенция абонента", "priority": "connection", "address": "Домодедово, ул.Ильюшина, д. 20", "tw": "14:00–16:00"}, "geometry": {"type": "Point", "coordinates": [37.7555, 55.4405]}}, {"type": "Feature", "properties": {"task_id": 20362, "type_bk": "Подключение", "type_hd": "Конвергенция абонента", "priority": "connection", "address": "Кашира, ул.Юбилейная, д. 8", "tw": "14:00–16:00"}, "geometry": {"type": "Point", "coordinates": [38.1665, 54.8335]}}, {"type": "Feature", "properties": {"task_id": 40698, "type_bk": "Подключение", "type_hd": "Конвергенция абонента", "priority": "connection", "address": "Город Москва, ул.Кустанайская, д. 9 к 1", "tw": "12:00–14:00"}, "geometry": {"type": "Point", "coordinates": [37.7325, 55.6105]}}, {"type": "Feature", "properties": {"task_id": 2427, "type_bk": "Дозаказ", "type_hd": "Дозаказ оборудования", "priority": "extra", "address": "Город Москва, пр-кт.Пролетарский, д. 18 к 4", "tw": "18:00–20:00"}, "geometry": {"type": "Point", "coordinates": [37.6795, 55.6155]}}, {"type": "Feature", "properties": {"task_id": 51603, "type_bk": "Дозаказ", "type_hd": "Заказ подключения/Дозаказ оборудования", "priority": "extra", "address": "Город Москва, ул.Борисовские Пруды, д. 20 к 1", "tw": "18:00–20:00"}, "geometry": {"type": "Point", "coordinates": [37.7495, 55.6265]}}, {"type": "Feature", "properties": {"task_id": 13404, "type_bk": "Дозаказ", "type_hd": "Конвергенция абонента", "priority": "extra", "address": "Кашира, ул.Кржижановского, д. 7", "tw": "20:00–22:00"}, "geometry": {"type": "Point", "coordinates": [38.1665, 54.8335]}}, {"type": "Feature", "properties": {"task_id": 72476, "type_bk": "Дозаказ", "type_hd": "Дозаказ оборудования", "priority": "extra", "address": "Город Москва, ул.Медынская, д. 5 к 1", "tw": "14:00–16:00"}, "geometry": {"type": "Point", "coordinates": [37.6415, 55.5865]}}, {"type": "Feature", "properties": {"task_id": 90989, "type_bk": "Локальная заявка", "type_hd": "Нет линка", "priority": "local", "address": "Домодедово, ул.Гагарина, д. 55/2", "tw": "16:00–18:00"}, "geometry": {"type": "Point", "coordinates": [37.7555, 55.4405]}}, {"type": "Feature", "properties": {"task_id": 7660, "type_bk": "Локальная заявка", "type_hd": "Нет линка", "priority": "local", "address": "Домодедово, ул.1-я Коммунистическая, д. 39", "tw": "18:00–20:00"}, "geometry": {"type": "Point", "coordinates": [37.7555, 55.4405]}}, {"type": "Feature", "properties": {"task_id": 89067, "type_bk": "Локальная заявка", "type_hd": "Работа с кабелем", "priority": "local", "address": "Город Москва, ул.Борисовские Пруды, д. 48 к 2", "tw": "18:00–20:00"}, "geometry": {"type": "Point", "coordinates": [37.7495, 55.6265]}}, {"type": "Feature", "properties": {"task_id": 65268, "type_bk": "Локальная заявка", "type_hd": "Работа с кабелем", "priority": "local", "address": "Ступино, ул.Калинина, д. 34", "tw": "20:00–22:00"}, "geometry": {"type": "Point", "coordinates": [38.0785, 54.8975]}}, {"type": "Feature", "properties": {"task_id": 33880, "type_bk": "Локальная заявка", "type_hd": "Низкая скорость", "priority": "local", "address": "Город Москва, проезд.Шипиловский, д. 59 к 2", "tw": "20:00–22:00"}, "geometry": {"type": "Point", "coordinates": [37.7065, 55.6135]}}, {"type": "Feature", "properties": {"task_id": 37590, "type_bk": "Локальная заявка", "type_hd": "Нет линка", "priority": "local", "address": "Город Москва, проезд.Востряковский, д. 15 к 2", "tw": "20:00–22:00"}, "geometry": {"type": "Point", "coordinates": [37.6415, 55.5865]}}, {"type": "Feature", "properties": {"task_id": 33507, "type_bk": "Локальная заявка", "type_hd": "Нет линка", "priority": "local", "address": "Город Москва, ул.Бирюлёвская, д. 58 к 3", "tw": "18:00–20:00"}, "geometry": {"type": "Point", "coordinates": [37.6905, 55.5905]}}, {"type": "Feature", "properties": {"task_id": 88209, "type_bk": "Локальная заявка", "type_hd": "Низкая скорость", "priority": "local", "address": "Город Москва, ул.Домодедовская, д. 31", "tw": "12:00–14:00"}, "geometry": {"type": "Point", "coordinates": [37.7065, 55.6135]}}, {"type": "Feature", "properties": {"task_id": 24482, "type_bk": "Локальная заявка", "type_hd": "Рост ошибок на порту", "priority": "local", "address": "Город Москва, ул.Весёлая, д. 33 к 7", "tw": "20:00–22:00"}, "geometry": {"type": "Point", "coordinates": [37.6795, 55.6155]}}, {"type": "Feature", "properties": {"task_id": 40111, "type_bk": "Локальная заявка", "type_hd": "Работа с кабелем", "priority": "local", "address": "Ступино, ул.Калинина, д. 34", "tw": "10:00–12:00"}, "geometry": {"type": "Point", "coordinates": [38.0785, 54.8975]}}, {"type": "Feature", "properties": {"task_id": 46199, "type_bk": "Локальная заявка", "type_hd": "Нет линка", "priority": "local", "address": "Домодедово, ул.Ильюшина, д. 11 к 2", "tw": "12:00–14:00"}, "geometry": {"type": "Point", "coordinates": [37.7555, 55.4405]}}, {"type": "Feature", "properties": {"task_id": 75282, "type_bk": "Локальная заявка", "type_hd": "Роутер. Замена техническим специалистом", "priority": "local", "address": "Город Москва, проезд.Востряковский, д. 15 к 4", "tw": "16:00–18:00"}, "geometry": {"type": "Point", "coordinates": [37.6415, 55.5865]}}, {"type": "Feature", "properties": {"task_id": 63577, "type_bk": "Локальная заявка", "type_hd": "Нет линка", "priority": "local", "address": "Домодедово, ул.Корнеева, д. 48", "tw": "10:00–12:00"}, "geometry": {"type": "Point", "coordinates": [37.7555, 55.4405]}}, {"type": "Feature", "properties": {"task_id": 7610, "type_bk": "Локальная заявка", "type_hd": "Переключение на Гбит/с", "priority": "local", "address": "Город Москва, ул.Луганская, д. 4 к 1", "tw": "18:00–20:00"}, "geometry": {"type": "Point", "coordinates": [37.6795, 55.6155]}}, {"type": "Feature", "properties": {"task_id": 19216, "type_bk": "Локальная заявка", "type_hd": "TVE/ENT. Замена приставки техником", "priority": "local", "address": "Город Москва, ул.Луганская, д. 3 к 1", "tw": "12:00–14:00"}, "geometry": {"type": "Point", "coordinates": [37.6795, 55.6155]}}, {"type": "Feature", "properties": {"task_id": 11872, "type_bk": "Локальная заявка", "type_hd": "Рост ошибок на порту", "priority": "local", "address": "Город Москва, ул.Весёлая, д. 33 к 7", "tw": "14:00–16:00"}, "geometry": {"type": "Point", "coordinates": [37.6795, 55.6155]}}, {"type": "Feature", "properties": {"task_id": 54422, "type_bk": "Локальная заявка", "type_hd": "IP-адрес 169...", "priority": "local", "address": "Город Москва, ул.Луганская, д. 1", "tw": "16:00–18:00"}, "geometry": {"type": "Point", "coordinates": [37.6795, 55.6155]}}, {"type": "Feature", "properties": {"task_id": 4724, "type_bk": "Локальная заявка", "type_hd": "Низкая скорость", "priority": "local", "address": "Город Москва, ул.Кантемировская, д. 5 к 2", "tw": "18:00–20:00"}, "geometry": {"type": "Point", "coordinates": [37.6795, 55.6155]}}, {"type": "Feature", "properties": {"task_id": 11899, "type_bk": "Локальная заявка", "type_hd": "Низкая скорость", "priority": "local", "address": "Город Москва, проезд.Загорьевский, д. 7 к 2", "tw": "10:00–12:00"}, "geometry": {"type": "Point", "coordinates": [37.6905, 55.5905]}}, {"type": "Feature", "properties": {"task_id": 60886, "type_bk": "Локальная заявка", "type_hd": "Переключение на Гбит/с", "priority": "local", "address": "Город Москва, ул.Маршала Захарова, д. 18 к 1", "tw": "16:00–18:00"}, "geometry": {"type": "Point", "coordinates": [37.7005, 55.6225]}}, {"type": "Feature", "properties": {"task_id": 32066, "type_bk": "Локальная заявка", "type_hd": "Нет линка", "priority": "local", "address": "Город Москва, ул.Генерала Белова, д. 45 к 2", "tw": "14:00–16:00"}, "geometry": {"type": "Point", "coordinates": [37.7065, 55.6135]}}, {"type": "Feature", "properties": {"task_id": 63894, "type_bk": "Локальная заявка", "type_hd": "IP-адрес 169...", "priority": "local", "address": "Город Москва, ул.Шипиловская, д. 38", "tw": "12:00–14:00"}, "geometry": {"type": "Point", "coordinates": [37.7005, 55.6225]}}, {"type": "Feature", "properties": {"task_id": 64168, "type_bk": "Локальная заявка", "type_hd": "TVE/ENT. Замена приставки техником", "priority": "local", "address": "Город Москва, проезд.Гурьевский, д. 19 к 2", "tw": "16:00–18:00"}, "geometry": {"type": "Point", "coordinates": [37.7065, 55.6135]}}, {"type": "Feature", "properties": {"task_id": 40919, "type_bk": "Локальная заявка", "type_hd": "Рост ошибок на порту", "priority": "local", "address": "Город Москва, проезд.Борисовский, д. 44 к 3", "tw": "10:00–12:00"}, "geometry": {"type": "Point", "coordinates": [37.7005, 55.6225]}}, {"type": "Feature", "properties": {"task_id": 36961, "type_bk": "Локальная заявка", "type_hd": "Нет линка", "priority": "local", "address": "Город Москва, проезд.Ореховый, д. 23 к 1", "tw": "18:00–20:00"}, "geometry": {"type": "Point", "coordinates": [37.7325, 55.6105]}}, {"type": "Feature", "properties": {"task_id": 12329, "type_bk": "Локальная заявка", "type_hd": "Разрывы", "priority": "local", "address": "Город Москва, ул.Булатниковская, д. 4 к 1", "tw": "12:00–14:00"}, "geometry": {"type": "Point", "coordinates": [37.6415, 55.5865]}}, {"type": "Feature", "properties": {"task_id": 95692, "type_bk": "Локальная заявка", "type_hd": "Нет линка", "priority": "local", "address": "Город Москва, б-р.Ореховый, д. 61 к 1", "tw": "10:00–12:00"}, "geometry": {"type": "Point", "coordinates": [37.7325, 55.6105]}}, {"type": "Feature", "properties": {"task_id": 13583, "type_bk": "Локальная заявка", "type_hd": "Нет линка", "priority": "local", "address": "Домодедово, проезд.Кутузовский, д. 16", "tw": "14:00–16:00"}, "geometry": {"type": "Point", "coordinates": [37.7555, 55.4405]}}, {"type": "Feature", "properties": {"task_id": 3151, "type_bk": "Локальная заявка", "type_hd": "Нет линка", "priority": "local", "address": "Кашира, ул.Ленина, д. 11 к 3", "tw": "12:00–14:00"}, "geometry": {"type": "Point", "coordinates": [38.1665, 54.8335]}}, {"type": "Feature", "properties": {"task_id": 45778, "type_bk": "Локальная заявка", "type_hd": "Рост ошибок на порту", "priority": "local", "address": "Кашира, ул.Металлургов, д. 5 к 3", "tw": "14:00–16:00"}, "geometry": {"type": "Point", "coordinates": [38.1665, 54.8335]}}, {"type": "Feature", "properties": {"task_id": 20055, "type_bk": "Локальная заявка", "type_hd": "IP-адрес 169...", "priority": "local", "address": "Город Москва, ул.Мусы Джалиля, д. 9 к 1", "tw": "12:00–14:00"}, "geometry": {"type": "Point", "coordinates": [37.7325, 55.6105]}}, {"type": "Feature", "properties": {"task_id": 7258, "type_bk": "Глобальная проблема", "type_hd": "Авария", "priority": "emergency", "address": "обл.Московская область, г.Домодедово, пгт.Востряково-1, ул.Жуковского, д. 14/18", "tw": "20:00–22:00"}, "geometry": {"type": "Point", "coordinates": [37.7555, 55.4405]}}, {"type": "Feature", "properties": {"task_id": 78673, "type_bk": "Глобальная проблема", "type_hd": "Авария", "priority": "emergency", "address": "МО, г. Кашира Центральная ул. д. 21", "tw": "09:00–22:00"}, "geometry": {"type": "Point", "coordinates": [38.1665, 54.8335]}}, {"type": "Feature", "properties": {"task_id": 98998, "type_bk": "Глобальная проблема", "type_hd": "Авария", "priority": "emergency", "address": "МО, г. Кашира Кржижановского ул. д. 5/1", "tw": "09:00–22:00"}, "geometry": {"type": "Point", "coordinates": [38.1665, 54.8335]}}, {"type": "Feature", "properties": {"task_id": 32589, "type_bk": "Глобальная проблема", "type_hd": "Авария", "priority": "emergency", "address": "МО, г. Кашира Кржижановского ул. д. 7к2", "tw": "09:00–22:00"}, "geometry": {"type": "Point", "coordinates": [38.1665, 54.8335]}}, {"type": "Feature", "properties": {"task_id": 51774, "type_bk": "Глобальная проблема", "type_hd": "Авария", "priority": "emergency", "address": "МО, г. Кашира Кржижановского ул. д. 5/3", "tw": "09:00–22:00"}, "geometry": {"type": "Point", "coordinates": [38.1665, 54.8335]}}, {"type": "Feature", "properties": {"task_id": 90915, "type_bk": "Глобальная проблема", "type_hd": "Авария", "priority": "emergency", "address": "МО, г. Кашира Кржижановского ул. д. 5/2", "tw": "09:00–22:00"}, "geometry": {"type": "Point", "coordinates": [38.1665, 54.8335]}}, {"type": "Feature", "properties": {"task_id": 45243, "type_bk": "Глобальная проблема", "type_hd": "Авария", "priority": "emergency", "address": "МО, г. Кашира Кржижановского ул. д. 5/1", "tw": "09:00–22:00"}, "geometry": {"type": "Point", "coordinates": [38.1665, 54.8335]}}, {"type": "Feature", "properties": {"task_id": 81698, "type_bk": "Глобальная проблема", "type_hd": "Авария", "priority": "emergency", "address": "МО, г. Ступино Андропова ул. д. 37", "tw": "09:00–22:00"}, "geometry": {"type": "Point", "coordinates": [38.0785, 54.8975]}}, {"type": "Feature", "properties": {"task_id": 97168, "type_bk": "Глобальная проблема", "type_hd": "Авария", "priority": "emergency", "address": "МО, г. Ступино Андропова ул. д. 33", "tw": "09:00–22:00"}, "geometry": {"type": "Point", "coordinates": [38.0785, 54.8975]}}, {"type": "Feature", "properties": {"task_id": 65034, "type_bk": "Глобальная проблема", "type_hd": "Авария", "priority": "emergency", "address": "МО, г. Кашира Центральная ул. д. 19", "tw": "09:00–22:00"}, "geometry": {"type": "Point", "coordinates": [38.1665, 54.8335]}}, {"type": "Feature", "properties": {"task_id": 1287, "type_bk": "Глобальная проблема", "type_hd": "Авария", "priority": "emergency", "address": "Москва Бирюлевская ул. д. 44", "tw": "09:00–22:00"}, "geometry": {"type": "Point", "coordinates": [37.6905, 55.5905]}}, {"type": "Feature", "properties": {"task_id": 31495, "type_bk": "Глобальная проблема", "type_hd": "Авария", "priority": "emergency", "address": "Москва Булатниковский пр-зд. д. 6к1", "tw": "09:00–22:00"}, "geometry": {"type": "Point", "coordinates": [37.6415, 55.5865]}}]}