{"type": "FeatureCollection", "features": [{"type": "Feature", "properties": {"engineer_id": "eng_00", "engineer_name": "Соколов", "distance_km": 26.02, "time_min": 332, "num_tasks": 6, "color": "#e6194b"}, "geometry": {"type": "LineString", "coordinates": [[37.7577, 55.6963], [37.6538, 55.7406], [37.6538, 55.7406], [37.6538, 55.7406], [37.6538, 55.7406], [37.6655, 55.7625], [37.6985, 55.7575], [37.7577, 55.6963]]}}, {"type": "Feature", "properties": {"engineer_id": "eng_01", "engineer_name": "Мельников", "distance_km": 18.63, "time_min": 306, "num_tasks": 6, "color": "#3cb44b"}, "geometry": {"type": "LineString", "coordinates": [[37.7577, 55.6963], [37.6538, 55.7406], [37.6538, 55.7406], [37.6538, 55.7406], [37.6538, 55.7406], [37.6538, 55.7406], [37.6538, 55.7406], [37.7577, 55.6963]]}}, {"type": "Feature", "properties": {"engineer_id": "eng_02", "engineer_name": "Матвеев", "distance_km": 20.7, "time_min": 316, "num_tasks": 6, "color": "#ffe119"}, "geometry": {"type": "LineString", "coordinates": [[37.7577, 55.6963], [37.7445, 55.7087], [37.7445, 55.7087], [37.7445, 55.7087], [37.7445, 55.7087], [37.7735, 55.6945], [37.8275, 55.7235], [37.7577, 55.6963]]}}, {"type": "Feature", "properties": {"engineer_id": "eng_03", "engineer_name": "Попов", "distance_km": 24.8, "time_min": 364, "num_tasks": 5, "color": "#4363d8"}, "geometry": {"type": "LineString", "coordinates": [[37.7577, 55.6963], [37.6875, 55.7235], [37.6875, 55.7235], [37.6985, 55.7575], [37.6985, 55.7575], [37.6985, 55.7575], [37.7577, 55.6963]]}}, {"type": "Feature", "properties": {"engineer_id": "eng_04", "engineer_name": "Арташкин", "distance_km": 3.54, "time_min": 300, "num_tasks": 5, "color": "#f58231"}, "geometry": {"type": "LineString", "coordinates": [[37.7577, 55.6963], [37.7735, 55.6945], [37.7735, 55.6945], [37.7735, 55.6945], [37.7735, 55.6945], [37.7735, 55.6945], [37.7577, 55.6963]]}}, {"type": "Feature", "properties": {"engineer_id": "eng_05", "engineer_name": "Комарь", "distance_km": 11.59, "time_min": 291, "num_tasks": 5, "color": "#911eb4"}, "geometry": {"type": "LineString", "coordinates": [[37.7577, 55.6963], [37.7625, 55.7225], [37.7625, 55.7225], [37.7625, 55.7225], [37.7625, 55.7225], [37.7625, 55.7225], [37.7577, 55.6963]]}}, {"type": "Feature", "properties": {"engineer_id": "eng_06", "engineer_name": "Каушнян", "distance_km": 7.16, "time_min": 305, "num_tasks": 5, "color": "#46f0f0"}, "geometry": {"type": "LineString", "coordinates": [[37.7577, 55.6963], [37.7445, 55.7087], [37.7445, 55.7087], [37.7445, 55.7087], [37.7735, 55.6945], [37.7735, 55.6945], [37.7577, 55.6963]]}}, {"type": "Feature", "properties": {"engineer_id": "eng_07", "engineer_name": "Зверев", "distance_km": 13.1, "time_min": 344, "num_tasks": 5, "color": "#f032e6"}, "geometry": {"type": "LineString", "coordinates": [[37.7577, 55.6963], [37.7625, 55.7225], [37.7625, 55.7225], [37.7625, 55.7225], [37.7445, 55.7087], [37.7445, 55.7087], [37.7577, 55.6963]]}}, {"type": "Feature", "properties": {"engineer_id": "eng_08", "engineer_name": "Перов", "distance_km": 23.91, "time_min": 338, "num_tasks": 5, "color": "#bcf60c"}, "geometry": {"type": "LineString", "coordinates": [[37.7577, 55.6963], [37.7205, 55.7295], [37.7205, 55.7295], [37.7205, 55.7295], [37.7205, 55.7295], [37.8275, 55.7235], [37.7577, 55.6963]]}}, {"type": "Feature", "properties": {"engineer_id": "eng_09", "engineer_name": "Белузин", "distance_km": 23.91, "time_min": 318, "num_tasks": 7, "color": "#fabebe"}, "geometry": {"type": "LineString", "coordinates": [[37.7577, 55.6963], [37.7205, 55.7295], [37.7205, 55.7295], [37.8275, 55.7235], [37.8275, 55.7235], [37.8275, 55.7235], [37.8275, 55.7235], [37.8275, 55.7235], [37.7577, 55.6963]]}}, {"type": "Feature", "properties": {"engineer_id": "eng_10", "engineer_name": "Гусаковский", "distance_km": 25.56, "time_min": 296, "num_tasks": 5, "color": "#008080"}, "geometry": {"type": "LineString", "coordinates": [[37.7577, 55.6963], [37.6655, 55.7625], [37.6655, 55.7625], [37.6655, 55.7625], [37.6985, 55.7575], [37.6985, 55.7575], [37.7577, 55.6963]]}}, {"type": "Feature", "properties": {"engineer_id": "eng_11", "engineer_name": "Свеженцев", "distance_km": 25.44, "time_min": 343, "num_tasks": 6, "color": "#e6beff"}, "geometry": {"type": "LineString", "coordinates": [[37.7577, 55.6963], [37.7205, 55.7295], [37.7205, 55.7295], [37.6538, 55.7406], [37.6538, 55.7406], [37.7445, 55.7087], [37.7735, 55.6945], [37.7577, 55.6963]]}}, {"type": "Feature", "properties": {"task_id": 74198, "type_bk": "Подключение", "type_hd": "Конвергенция абонента", "priority": "connection", "address": "Город Москва, пр-кт.Волгоградский, д. 128 к 5", "tw": "11:00–13:00"}, "geometry": {"type": "Point", "coordinates": [37.7735, 55.6945]}}, {"type": "Feature", "properties": {"task_id": 86160, "type_bk": "Подключение", "type_hd": "Конвергенция абонента", "priority": "connection", "address": "Город Москва, пер.Маяковского, д. 2", "tw": "09:00–11:00"}, "geometry": {"type": "Point", "coordinates": [37.6538, 55.7406]}}, {"type": "Feature", "properties": {"task_id": 50104, "type_bk": "Подключение", "type_hd": "Заявка на подключение", "priority": "connection", "address": "Город Москва, ул.Грайвороновская, д. 10 к 2", "tw": "09:00–11:00"}, "geometry": {"type": "Point", "coordinates": [37.7445, 55.7087]}}, {"type": "Feature", "properties": {"task_id": 46393, "type_bk": "Подключение", "type_hd": "Конвергенция абонента", "priority": "connection", "address": "Город Москва, ул.Михайлова, д. 14", "tw": "11:00–13:00"}, "geometry": {"type": "Point", "coordinates": [37.7625, 55.7225]}}, {"type": "Feature", "properties": {"task_id": 10135, "type_bk": "Подключение", "type_hd": "Конвергенция абонента", "priority": "connection", "address": "Город Москва, ул.3-я Институтская, д. 5 к 2", "tw": "09:00–11:00"}, "geometry": {"type": "Point", "coordinates": [37.7625, 55.7225]}}, {"type": "Feature", "properties": {"task_id": 18754, "type_bk": "Подключение", "type_hd": "Конвергенция абонента", "priority": "connection", "address": "Город Москва, ул.1-я Новокузьминская, д. 16 к 1", "tw": "09:00–11:00"}, "geometry": {"type": "Point", "coordinates": [37.7625, 55.7225]}}, {"type": "Feature", "properties": {"task_id": 84627, "type_bk": "Подключение", "type_hd": "Конвергенция абонента", "priority": "connection", "address": "Город Москва, ул.Окская, д. 32", "tw": "11:00–13:00"}, "geometry": {"type": "Point", "coordinates": [37.7735, 55.6945]}}, {"type": "Feature", "properties": {"task_id": 61540, "type_bk": "Подключение", "type_hd": "Конвергенция абонента", "priority": "connection", "address": "Город Москва, ул.Юных Ленинцев, д. 84", "tw": "09:00–09:30"}, "geometry": {"type": "Point", "coordinates": [37.7735, 55.6945]}}, {"type": "Feature", "properties": {"task_id": 74949, "type_bk": "Подключение", "type_hd": "Конвергенция абонента", "priority": "connection", "address": "Город Москва, ул.Международная, д. 28 стр. 1", "tw": "09:00–09:30"}, "geometry": {"type": "Point", "coordinates": [37.6538, 55.7406]}}, {"type": "Feature", "properties": {"task_id": 41077, "type_bk": "Подключение", "type_hd": "Конвергенция абонента", "priority": "connection", "address": "Город Москва, ул.Новорогожская, д. 8", "tw": "09:00–09:30"}, "geometry": {"type": "Point", "coordinates": [37.6538, 55.7406]}}, {"type": "Feature", "properties": {"task_id": 87693, "type_bk": "Подключение", "type_hd": "Конвергенция абонента", "priority": "connection", "address": "Город Москва, ул.Чистова, д. 12", "tw": "09:00–09:30"}, "geometry": {"type": "Point", "coordinates": [37.7445, 55.7087]}}, {"type": "Feature", "properties": {"task_id": 93086, "type_bk": "Подключение", "type_hd": "Конвергенция абонента", "priority": "connection", "address": "Город Москва, ул.Паперника, д. 19", "tw": "09:00–09:30"}, "geometry": {"type": "Point", "coordinates": [37.7625, 55.7225]}}, {"type": "Feature", "properties": {"task_id": 57866, "type_bk": "Подключение", "type_hd": "Конвергенция абонента", "priority": "connection", "address": "Город Москва, ул.Окская, д. 48/2", "tw": "09:00–09:30"}, "geometry": {"type": "Point", "coordinates": [37.7625, 55.7225]}}, {"type": "Feature", "properties": {"task_id": 35675, "type_bk": "Подключение", "type_hd": "Конвергенция абонента", "priority": "connection", "address": "Город Москва, ул.Трофимова, д. 24 к 2", "tw": "09:00–09:30"}, "geometry": {"type": "Point", "coordinates": [37.6875, 55.7235]}}, {"type": "Feature", "properties": {"task_id": 82388, "type_bk": "Подключение", "type_hd": "Конвергенция абонента", "priority": "connection", "address": "Город Москва, ул.1-я Дубровская, д. 6", "tw": "09:00–09:30"}, "geometry": {"type": "Point", "coordinates": [37.6875, 55.7235]}}, {"type": "Feature", "properties": {"task_id": 23380, "type_bk": "Подключение", "type_hd": "Конвергенция абонента", "priority": "connection", "address": "Город Москва, ул.Рогожский Вал, д. 2/50", "tw": "09:00–09:30"}, "geometry": {"type": "Point", "coordinates": [37.6538, 55.7406]}}, {"type": "Feature", "properties": {"task_id": 37272, "type_bk": "Подключение", "type_hd": "Конвергенция абонента", "priority": "connection", "address": "Город Москва, ул.Талалихина, д. 2/1 к 4", "tw": "09:00–09:30"}, "geometry": {"type": "Point", "coordinates": [37.6538, 55.7406]}}, {"type": "Feature", "properties": {"task_id": 71388, "type_bk": "Подключение", "type_hd": "Конвергенция абонента", "priority": "connection", "address": "Город Москва, ул.Артюхиной, д. 20А", "tw": "09:00–09:30"}, "geometry": {"type": "Point", "coordinates": [37.7445, 55.7087]}}, {"type": "Feature", "properties": {"task_id": 34366, "type_bk": "Подключение", "type_hd": "Конвергенция абонента", "priority": "connection", "address": "Город Москва, ул.Малышева, д. 13", "tw": "09:00–09:30"}, "geometry": {"type": "Point", "coordinates": [37.7445, 55.7087]}}, {"type": "Feature", "properties": {"task_id": 67554, "type_bk": "Подключение", "type_hd": "Заявка на подключение", "priority": "connection", "address": "Город Москва, ул.Бронницкая, д. 12", "tw": "09:00–09:30"}, "geometry": {"type": "Point", "coordinates": [37.7205, 55.7295]}}, {"type": "Feature", "properties": {"task_id": 94409, "type_bk": "Подключение", "type_hd": "Конвергенция абонента", "priority": "connection", "address": "Город Москва, ул.Авиамоторная, д. 14", "tw": "09:00–09:30"}, "geometry": {"type": "Point", "coordinates": [37.6985, 55.7575]}}, {"type": "Feature", "properties": {"task_id": 10245, "type_bk": "Подключение", "type_hd": "Конвергенция абонента", "priority": "connection", "address": "Город Москва, ул.Фёдора Полетаева, д. 2 к 6", "tw": "09:00–09:30"}, "geometry": {"type": "Point", "coordinates": [37.7735, 55.6945]}}, {"type": "Feature", "properties": {"task_id": 52405, "type_bk": "Подключение", "type_hd": "Конвергенция абонента", "priority": "connection", "address": "Город Москва, ул.Зарайская, д. 51 к 2", "tw": "09:00–09:30"}, "geometry": {"type": "Point", "coordinates": [37.7625, 55.7225]}}, {"type": "Feature", "properties": {"task_id": 30769, "type_bk": "Подключение", "type_hd": "Конвергенция абонента", "priority": "connection", "address": "Город Москва, ул.Саратовская, д. 14/1", "tw": "09:00–09:30"}, "geometry": {"type": "Point", "coordinates": [37.7445, 55.7087]}}, {"type": "Feature", "properties": {"task_id": 98182, "type_bk": "Подключение", "type_hd": "Заявка на подключение", "priority": "connection", "address": "Город Москва, ул.Нижегородская, д. 63", "tw": "09:00–09:30"}, "geometry": {"type": "Point", "coordinates": [37.7205, 55.7295]}}, {"type": "Feature", "properties": {"task_id": 76082, "type_bk": "Подключение", "type_hd": "Заказ подключения/Дозаказ оборудования", "priority": "connection", "address": "Город Москва, ул.Смирновская, д. 6", "tw": "09:00–09:30"}, "geometry": {"type": "Point", "coordinates": [37.7205, 55.7295]}}, {"type": "Feature", "properties": {"task_id": 29890, "type_bk": "Подключение", "type_hd": "Конвергенция абонента", "priority": "connection", "address": "Город Москва, ул.Нижегородская, д. 61", "tw": "09:00–09:30"}, "geometry": {"type": "Point", "coordinates": [37.7205, 55.7295]}}, {"type": "Feature", "properties": {"task_id": 77563, "type_bk": "Подключение", "type_hd": "Конвергенция абонента", "priority": "connection", "address": "Город Москва, ул.Зеленодольская, д. 28Б", "tw": "09:00–09:30"}, "geometry": {"type": "Point", "coordinates": [37.7735, 55.6945]}}, {"type": "Feature", "properties": {"task_id": 53587, "type_bk": "Подключение", "type_hd": "Конвергенция абонента", "priority": "connection", "address": "Город Москва, ул.Артюхиной, д. 16", "tw": "09:00–09:30"}, "geometry": {"type": "Point", "coordinates": [37.7445, 55.7087]}}, {"type": "Feature", "properties": {"task_id": 82808, "type_bk": "Подключение", "type_hd": "Конвергенция абонента", "priority": "connection", "address": "Город Москва, ул.3-я Карачаровская, д. 4 к 1", "tw": "09:00–09:30"}, "geometry": {"type": "Point", "coordinates": [37.7205, 55.7295]}}, {"type": "Feature", "properties": {"task_id": 7939, "type_bk": "Подключение", "type_hd": "Конвергенция абонента", "priority": "connection", "address": "Город Москва, пр-кт.Рязанский, д. 73", "tw": "09:00–09:30"}, "geometry": {"type": "Point", "coordinates": [37.7625, 55.7225]}}, {"type": "Feature", "properties": {"task_id": 92031, "type_bk": "Дозаказ", "type_hd": "Дозаказ оборудования", "priority": "extra", "address": "Город Москва, ул.Ферганская, д. 28/7", "tw": "09:00–11:00"}, "geometry": {"type": "Point", "coordinates": [37.8275, 55.7235]}}, {"type": "Feature", "properties": {"task_id": 31260, "type_bk": "Дозаказ", "type_hd": "Дозаказ оборудования", "priority": "extra", "address": "Город Москва, б-р.Самаркандский Квартал 137а, д. к5", "tw": "11:00–13:00"}, "geometry": {"type": "Point", "coordinates": [37.8275, 55.7235]}}, {"type": "Feature", "properties": {"task_id": 69967, "type_bk": "Дозаказ", "type_hd": "Заказ подключения/Дозаказ оборудования", "priority": "extra", "address": "Город Москва, ул.Боровая, д. 14", "tw": "09:00–09:30"}, "geometry": {"type": "Point", "coordinates": [37.6985, 55.7575]}}, {"type": "Feature", "properties": {"task_id": 22634, "type_bk": "Дозаказ", "type_hd": "Дозаказ оборудования", "priority": "extra", "address": "Город Москва, ул.Стройковская, д. 8", "tw": "09:00–09:30"}, "geometry": {"type": "Point", "coordinates": [37.6538, 55.7406]}}, {"type": "Feature", "properties": {"task_id": 98815, "type_bk": "Дозаказ", "type_hd": "Дозаказ оборудования", "priority": "extra", "address": "Город Москва, ул.2-я Синичкина, д. 9 к 1", "tw": "09:00–11:00"}, "geometry": {"type": "Point", "coordinates": [37.6985, 55.7575]}}, {"type": "Feature", "properties": {"task_id": 33527, "type_bk": "Дозаказ", "type_hd": "Дозаказ оборудования", "priority": "extra", "address": "Москва, проезд Орехово-Зуевский, д. 18/8", "tw": "09:00–09:30"}, "geometry": {"type": "Point", "coordinates": [37.7205, 55.7295]}}, {"type": "Feature", "properties": {"task_id": 21571, "type_bk": "Локальная заявка", "type_hd": "Нет линка", "priority": "local", "address": "Город Москва, пер.Большой Рогожский, д. 10 к 2", "tw": "09:00–11:00"}, "geometry": {"type": "Point", "coordinates": [37.6538, 55.7406]}}, {"type": "Feature", "properties": {"task_id": 47670, "type_bk": "Локальная заявка", "type_hd": "Нет линка", "priority": "local", "address": "Город Москва, ул.Машкова, д. 13 стр. 1", "tw": "11:00–13:00"}, "geometry": {"type": "Point", "coordinates": [37.6655, 55.7625]}}, {"type": "Feature", "properties": {"task_id": 17892, "type_bk": "Локальная заявка", "type_hd": "Переключение на Гбит/с", "priority": "local", "address": "Город Москва, ул.11-я Текстильщиков, д. 10", "tw": "09:00–11:00"}, "geometry": {"type": "Point", "coordinates": [37.7445, 55.7087]}}, {"type": "Feature", "properties": {"task_id": 51115, "type_bk": "Локальная заявка", "type_hd": "Нет линка", "priority": "local", "address": "Город Москва, ул.Паперника, д. 18", "tw": "09:00–11:00"}, "geometry": {"type": "Point", "coordinates": [37.7625, 55.7225]}}, {"type": "Feature", "properties": {"task_id": 76643, "type_bk": "Локальная заявка", "type_hd": "Нет линка", "priority": "local", "address": "Город Москва, ул.Большая Калитниковская, д. 38", "tw": "09:00–11:00"}, "geometry": {"type": "Point", "coordinates": [37.6538, 55.7406]}}, {"type": "Feature", "properties": {"task_id": 43506, "type_bk": "Локальная заявка", "type_hd": "Переключение на Гбит/с", "priority": "local", "address": "Город Москва, б-р.Самаркандский Квартал 137а, д. к5", "tw": "11:00–13:00"}, "geometry": {"type": "Point", "coordinates": [37.8275, 55.7235]}}, {"type": "Feature", "properties": {"task_id": 48174, "type_bk": "Локальная заявка", "type_hd": "Мониторинг", "priority": "local", "address": "Город Москва, ул.Маршала Чуйкова, д. 9 к 2", "tw": "09:00–11:00"}, "geometry": {"type": "Point", "coordinates": [37.7735, 55.6945]}}, {"type": "Feature", "properties": {"task_id": 48227, "type_bk": "Локальная заявка", "type_hd": "Нет линка", "priority": "local", "address": "Город Москва, ул.Талалихина, д. 16", "tw": "09:00–09:30"}, "geometry": {"type": "Point", "coordinates": [37.6538, 55.7406]}}, {"type": "Feature", "properties": {"task_id": 60720, "type_bk": "Локальная заявка", "type_hd": "Нет линка", "priority": "local", "address": "Город Москва, б-р.Волжский, д. 50 к 2", "tw": "09:00–09:30"}, "geometry": {"type": "Point", "coordinates": [37.7445, 55.7087]}}, {"type": "Feature", "properties": {"task_id": 48238, "type_bk": "Локальная заявка", "type_hd": "Разрывы", "priority": "local", "address": "Город Москва, ул.Артюхиной, д. 3", "tw": "09:00–09:30"}, "geometry": {"type": "Point", "coordinates": [37.7445, 55.7087]}}, {"type": "Feature", "properties": {"task_id": 41912, "type_bk": "Локальная заявка", "type_hd": "Нет линка", "priority": "local", "address": "Город Москва, проезд.Ферганский, д. 7 к 5", "tw": "09:00–09:30"}, "geometry": {"type": "Point", "coordinates": [37.8275, 55.7235]}}, {"type": "Feature", "properties": {"task_id": 4893, "type_bk": "Локальная заявка", "type_hd": "Нет линка", "priority": "local", "address": "Город Москва, ул.Земляной Вал, д. 24/30 стр. 1", "tw": "09:00–09:30"}, "geometry": {"type": "Point", "coordinates": [37.6655, 55.7625]}}, {"type": "Feature", "properties": {"task_id": 68476, "type_bk": "Локальная заявка", "type_hd": "Разрывы", "priority": "local", "address": "Город Москва, ул.3-я Карачаровская, д. 8 к 2", "tw": "09:00–09:30"}, "geometry": {"type": "Point", "coordinates": [37.7205, 55.7295]}}, {"type": "Feature", "properties": {"task_id": 50219, "type_bk": "Локальная заявка", "type_hd": "Нет линка", "priority": "local", "address": "Город Москва, ул.Чистопольская, д. 2 к 2", "tw": "09:00–09:30"}, "geometry": {"type": "Point", "coordinates": [37.7205, 55.7295]}}, {"type": "Feature", "properties": {"task_id": 76678, "type_bk": "Локальная заявка", "type_hd": "Работа с кабелем", "priority": "local", "address": "Город Москва, ул.Боровая, д. 12", "tw": "09:00–09:30"}, "geometry": {"type": "Point", "coordinates": [37.6985, 55.7575]}}, {"type": "Feature", "properties": {"task_id": 47330, "type_bk": "Локальная заявка", "type_hd": "Роутер. Замена техническим специалистом", "priority": "local", "address": "Город Москва, ул.Красноказарменная, д. 9Б стр. 1", "tw": "09:00–09:30"}, "geometry": {"type": "Point", "coordinates": [37.6985, 55.7575]}}, {"type": "Feature", "properties": {"task_id": 26645, "type_bk": "Локальная заявка", "type_hd": "TVE/ENT. Другие ошибки", "priority": "local", "address": "Город Москва, ул.Сторожевая, д. 31", "tw": "09:00–09:30"}, "geometry": {"type": "Point", "coordinates": [37.6985, 55.7575]}}, {"type": "Feature", "properties": {"task_id": 24076, "type_bk": "Локальная заявка", "type_hd": "Роутер. Замена техническим специалистом", "priority": "local", "address": "Город Москва, ул.Новорогожская, д. 10", "tw": "09:00–09:30"}, "geometry": {"type": "Point", "coordinates": [37.6538, 55.7406]}}, {"type": "Feature", "properties": {"task_id": 30243, "type_bk": "Локальная заявка", "type_hd": "TVE/ENT. Замена приставки техником", "priority": "local", "address": "Город Москва, ул.Нижегородская, д. 25", "tw": "09:00–11:00"}, "geometry": {"type": "Point", "coordinates": [37.6538, 55.7406]}}, {"type": "Feature", "properties": {"task_id": 32807, "type_bk": "Локальная заявка", "type_hd": "Работа с кабелем", "priority": "local", "address": "Город Москва, ул.Окская, д. 6 к 1", "tw": "09:00–09:30"}, "geometry": {"type": "Point", "coordinates": [37.7735, 55.6945]}}, {"type": "Feature", "properties": {"task_id": 73572, "type_bk": "Локальная заявка", "type_hd": "Нет линка", "priority": "local", "address": "Город Москва, пр-кт.Волгоградский, д. 97 к 1", "tw": "09:00–09:30"}, "geometry": {"type": "Point", "coordinates": [37.7735, 55.6945]}}, {"type": "Feature", "properties": {"task_id": 41962, "type_bk": "Глобальная проблема", "type_hd": "Информация", "priority": "local", "address": "г.Город Москва, б-р.Самаркандский, д. 32к1", "tw": "09:00–09:30"}, "geometry": {"type": "Point", "coordinates": [37.8275, 55.7235]}}, {"type": "Feature", "properties": {"task_id": 97886, "type_bk": "Глобальная проблема", "type_hd": "Информация", "priority": "local", "address": "г.Город Москва, б-р.Самаркандский, д. 10к2", "tw": "09:00–09:30"}, "geometry": {"type": "Point", "coordinates": [37.8275, 55.7235]}}, {"type": "Feature", "properties": {"task_id": 17349, "type_bk": "Глобальная проблема", "type_hd": "Информация", "priority": "local", "address": "г.Город Москва, ул.Новорогожская, д. 20", "tw": "09:00–09:30"}, "geometry": {"type": "Point", "coordinates": [37.6538, 55.7406]}}, {"type": "Feature", "properties": {"task_id": 54964, "type_bk": "Глобальная проблема", "type_hd": "Информация", "priority": "local", "address": "г.Город Москва, ул.Ташкентская, д. 16к2", "tw": "09:00–09:30"}, "geometry": {"type": "Point", "coordinates": [37.8275, 55.7235]}}, {"type": "Feature", "properties": {"task_id": 21367, "type_bk": "Глобальная проблема", "type_hd": "Авария", "priority": "emergency", "address": "г.Город Москва, ул.Саратовская, д. 16", "tw": "11:00–13:00"}, "geometry": {"type": "Point", "coordinates": [37.7445, 55.7087]}}, {"type": "Feature", "properties": {"task_id": 24980, "type_bk": "Глобальная проблема", "type_hd": "Авария", "priority": "emergency", "address": "г.Город Москва, наб.Семеновская, д. 3/1к2", "tw": "09:00–09:30"}, "geometry": {"type": "Point", "coordinates": [37.6655, 55.7625]}}, {"type": "Feature", "properties": {"task_id": 15648, "type_bk": "Глобальная проблема", "type_hd": "Информация", "priority": "local", "address": "г.Город Москва, наб.Семеновская, д. 2/1", "tw": "09:00–09:30"}, "geometry": {"type": "Point", "coordinates": [37.6655, 55.7625]}}, {"type": "Feature", "properties": {"task_id": 57299, "type_bk": "Глобальная проблема", "type_hd": "Авария", "priority": "emergency", "address": "г.Город Москва, пр-кт.Волгоградский, д. 128к1", "tw": "11:00–13:00"}, "geometry": {"type": "Point", "coordinates": [37.7735, 55.6945]}}]}